ICEYE-X53               
1 64584U 25135BJ  26189.49157042  .00000305  00000+0  28677-4 0  9992
2 64584  97.7367 306.1815 0001612 165.4780 194.6491 15.00867443 57276
ICEYE-X65               
1 66300U 25248H   26189.54826830  .00002265  00000+0  16124-3 0  9999
2 66300  45.4053  21.8539 0004817 162.0776 198.0276 15.07901776 38743
ICEYE-X66               
1 66301U 25248J   26189.55146799  .00002243  00000+0  15469-3 0  9997
2 66301  45.4021  20.9877 0004446 157.5963 202.5114 15.09149054 38735
ICEYE-X67               
1 66302U 25248K   26189.24509329  .00001799  00000+0  12721-3 0  9999
2 66302  45.4058  22.1771 0005971 156.3678 203.7480 15.09128573 38706
ICEYE-X58               
1 66751U 25276CP  26189.15706075  .00001649  00000+0  86091-4 0  9991
2 66751  97.4203 262.1798 0001704 257.2344 102.8699 15.17300957 33599
ICEYE-X59               
1 66752U 25276CQ  26189.47820468  .00003202  00000+0  25720-3 0  9998
2 66752  97.4370 259.8668 0000433 144.4809 215.6445 15.00713647 33469
ICEYE-X60               
1 66753U 25276CR  26187.72398211  .00003684  00000+0  22322-3 0  9990
2 66753  97.4205 259.8267 0000969 312.9978  47.1171 15.11178480 33315
ICEYE-X61               
1 66754U 25276CS  26189.18126179  .00001791  00000+0  89906-4 0  9994
2 66754  97.4191 262.2802 0001615 253.9399 106.1657 15.18582276 33609
ICEYE-X62               
1 66755U 25276CT  26189.13533733  .00001487  00000+0  95019-4 0  9992
2 66755  97.4193 260.6877 0000846 323.7375  36.3797 15.10115023 33491
ICEYE-X63               
1 67372U 26004K   26189.46130582  .00000743  00000+0  86149-4 0  9997
2 67372  97.8010 187.7686 0005736  68.3131 291.8696 14.88340816 26460
ICEYE-X64               
1 67373U 26004L   26189.44112941  .00000997  00000+0  11461-3 0  9990
2 67373  97.8022 187.6706 0007538  72.0641 288.1397 14.87976080 26459
ICEYE-X71               
1 68494U 26067CG  26189.32544750  .00001191  00000+0  12369-3 0  9993
2 68494  97.7617 147.2367 0001664  10.0038 350.1214 14.91773156 14879
ICEYE-X73               
1 68496U 26067CJ  26189.35570470  .00001976  00000+0  19886-3 0  9998
2 68496  97.7612 147.3467 0000950 159.3430 200.7828 14.92328172 14885
ICEYE-X75               
1 68497U 26067CK  26189.35941046  .00001014  00000+0  10507-3 0  9994
2 68497  97.7602 147.3210 0000840 152.6686 207.4577 14.92164601 14888
ICEYE-X74               
1 68500U 26067CN  26189.39165902  .00001197  00000+0  12425-3 0  9995
2 68500  97.7623 147.3117 0001479   6.3932 353.7305 14.91773826 14888
ICEYE-X76               
1 68502U 26067CQ  26189.32030602  .00000692  00000+0  74222-4 0  9991
2 68502  97.7635 147.2591 0001159 355.0784   5.0423 14.91741816 14873
