{"fetched_at":"2026-07-08T17:59:50.271Z","source":"https://celestrak.org/NORAD/elements/gp.php?NAME=ICEYE&FORMAT=JSON","constellation":"iceye","records":[{"OBJECT_NAME":"ICEYE-X53","OBJECT_ID":"2025-135BJ","EPOCH":"2026-07-08T11:47:51.684288","CLASSIFICATION_TYPE":"U","MEAN_MOTION":15.00867443,"ECCENTRICITY":0.0001612,"INCLINATION":97.7367,"RA_OF_ASC_NODE":306.1815,"ARG_OF_PERICENTER":165.478,"MEAN_ANOMALY":194.6491,"EPHEMERIS_TYPE":0,"NORAD_CAT_ID":64584,"ELEMENT_SET_NO":999,"REV_AT_EPOCH":5727,"BSTAR":0.000028677,"MEAN_MOTION_DOT":0.00000305,"MEAN_MOTION_DDOT":0},{"OBJECT_NAME":"ICEYE-X65","OBJECT_ID":"2025-248H","EPOCH":"2026-07-08T13:09:30.381120","CLASSIFICATION_TYPE":"U","MEAN_MOTION":15.07901776,"ECCENTRICITY":0.0004817,"INCLINATION":45.4053,"RA_OF_ASC_NODE":21.8539,"ARG_OF_PERICENTER":162.0776,"MEAN_ANOMALY":198.0276,"EPHEMERIS_TYPE":0,"NORAD_CAT_ID":66300,"ELEMENT_SET_NO":999,"REV_AT_EPOCH":3874,"BSTAR":0.00016124,"MEAN_MOTION_DOT":0.00002265,"MEAN_MOTION_DDOT":0},{"OBJECT_NAME":"ICEYE-X66","OBJECT_ID":"2025-248J","EPOCH":"2026-07-08T13:14:06.834336","CLASSIFICATION_TYPE":"U","MEAN_MOTION":15.09149054,"ECCENTRICITY":0.0004446,"INCLINATION":45.4021,"RA_OF_ASC_NODE":20.9877,"ARG_OF_PERICENTER":157.5963,"MEAN_ANOMALY":202.5114,"EPHEMERIS_TYPE":0,"NORAD_CAT_ID":66301,"ELEMENT_SET_NO":999,"REV_AT_EPOCH":3873,"BSTAR":0.00015469,"MEAN_MOTION_DOT":0.00002243,"MEAN_MOTION_DDOT":0},{"OBJECT_NAME":"ICEYE-X67","OBJECT_ID":"2025-248K","EPOCH":"2026-07-08T05:52:56.060256","CLASSIFICATION_TYPE":"U","MEAN_MOTION":15.09128573,"ECCENTRICITY":0.0005971,"INCLINATION":45.4058,"RA_OF_ASC_NODE":22.1771,"ARG_OF_PERICENTER":156.3678,"MEAN_ANOMALY":203.748,"EPHEMERIS_TYPE":0,"NORAD_CAT_ID":66302,"ELEMENT_SET_NO":999,"REV_AT_EPOCH":3870,"BSTAR":0.00012721,"MEAN_MOTION_DOT":0.00001799,"MEAN_MOTION_DDOT":0},{"OBJECT_NAME":"ICEYE-X58","OBJECT_ID":"2025-276CP","EPOCH":"2026-07-08T03:46:10.048800","CLASSIFICATION_TYPE":"U","MEAN_MOTION":15.17300957,"ECCENTRICITY":0.0001704,"INCLINATION":97.4203,"RA_OF_ASC_NODE":262.1798,"ARG_OF_PERICENTER":257.2344,"MEAN_ANOMALY":102.8699,"EPHEMERIS_TYPE":0,"NORAD_CAT_ID":66751,"ELEMENT_SET_NO":999,"REV_AT_EPOCH":3359,"BSTAR":0.000086091,"MEAN_MOTION_DOT":0.00001649,"MEAN_MOTION_DDOT":0},{"OBJECT_NAME":"ICEYE-X59","OBJECT_ID":"2025-276CQ","EPOCH":"2026-07-08T11:28:36.884352","CLASSIFICATION_TYPE":"U","MEAN_MOTION":15.00713647,"ECCENTRICITY":0.0000433,"INCLINATION":97.437,"RA_OF_ASC_NODE":259.8668,"ARG_OF_PERICENTER":144.4809,"MEAN_ANOMALY":215.6445,"EPHEMERIS_TYPE":0,"NORAD_CAT_ID":66752,"ELEMENT_SET_NO":999,"REV_AT_EPOCH":3346,"BSTAR":0.0002572,"MEAN_MOTION_DOT":0.00003202,"MEAN_MOTION_DDOT":0},{"OBJECT_NAME":"ICEYE-X60","OBJECT_ID":"2025-276CR","EPOCH":"2026-07-06T17:22:32.054304","CLASSIFICATION_TYPE":"U","MEAN_MOTION":15.1117848,"ECCENTRICITY":0.00009692,"INCLINATION":97.4205,"RA_OF_ASC_NODE":259.8267,"ARG_OF_PERICENTER":312.9978,"MEAN_ANOMALY":47.1171,"EPHEMERIS_TYPE":0,"NORAD_CAT_ID":66753,"ELEMENT_SET_NO":999,"REV_AT_EPOCH":3331,"BSTAR":0.00022321541,"MEAN_MOTION_DOT":0.00003684,"MEAN_MOTION_DDOT":0},{"OBJECT_NAME":"ICEYE-X61","OBJECT_ID":"2025-276CS","EPOCH":"2026-07-08T04:21:01.018656","CLASSIFICATION_TYPE":"U","MEAN_MOTION":15.18582276,"ECCENTRICITY":0.0001615,"INCLINATION":97.4191,"RA_OF_ASC_NODE":262.2802,"ARG_OF_PERICENTER":253.9399,"MEAN_ANOMALY":106.1657,"EPHEMERIS_TYPE":0,"NORAD_CAT_ID":66754,"ELEMENT_SET_NO":999,"REV_AT_EPOCH":3360,"BSTAR":0.000089906,"MEAN_MOTION_DOT":0.00001791,"MEAN_MOTION_DDOT":0},{"OBJECT_NAME":"ICEYE-X62","OBJECT_ID":"2025-276CT","EPOCH":"2026-07-08T03:14:53.145312","CLASSIFICATION_TYPE":"U","MEAN_MOTION":15.10115023,"ECCENTRICITY":0.0000846,"INCLINATION":97.4193,"RA_OF_ASC_NODE":260.6877,"ARG_OF_PERICENTER":323.7375,"MEAN_ANOMALY":36.3797,"EPHEMERIS_TYPE":0,"NORAD_CAT_ID":66755,"ELEMENT_SET_NO":999,"REV_AT_EPOCH":3349,"BSTAR":0.000095019,"MEAN_MOTION_DOT":0.00001487,"MEAN_MOTION_DDOT":0},{"OBJECT_NAME":"ICEYE-X63","OBJECT_ID":"2026-004K","EPOCH":"2026-07-08T11:04:16.822848","CLASSIFICATION_TYPE":"U","MEAN_MOTION":14.88340816,"ECCENTRICITY":0.0005736,"INCLINATION":97.801,"RA_OF_ASC_NODE":187.7686,"ARG_OF_PERICENTER":68.3131,"MEAN_ANOMALY":291.8696,"EPHEMERIS_TYPE":0,"NORAD_CAT_ID":67372,"ELEMENT_SET_NO":999,"REV_AT_EPOCH":2646,"BSTAR":0.000086149,"MEAN_MOTION_DOT":0.00000743,"MEAN_MOTION_DDOT":0},{"OBJECT_NAME":"ICEYE-X64","OBJECT_ID":"2026-004L","EPOCH":"2026-07-08T10:35:13.581024","CLASSIFICATION_TYPE":"U","MEAN_MOTION":14.8797608,"ECCENTRICITY":0.0007538,"INCLINATION":97.8022,"RA_OF_ASC_NODE":187.6706,"ARG_OF_PERICENTER":72.0641,"MEAN_ANOMALY":288.1397,"EPHEMERIS_TYPE":0,"NORAD_CAT_ID":67373,"ELEMENT_SET_NO":999,"REV_AT_EPOCH":2645,"BSTAR":0.00011461,"MEAN_MOTION_DOT":0.00000997,"MEAN_MOTION_DDOT":0},{"OBJECT_NAME":"ICEYE-X71","OBJECT_ID":"2026-067CG","EPOCH":"2026-07-08T07:48:38.664000","CLASSIFICATION_TYPE":"U","MEAN_MOTION":14.91773156,"ECCENTRICITY":0.0001664,"INCLINATION":97.7617,"RA_OF_ASC_NODE":147.2367,"ARG_OF_PERICENTER":10.0038,"MEAN_ANOMALY":350.1214,"EPHEMERIS_TYPE":0,"NORAD_CAT_ID":68494,"ELEMENT_SET_NO":999,"REV_AT_EPOCH":1487,"BSTAR":0.00012369,"MEAN_MOTION_DOT":0.00001191,"MEAN_MOTION_DDOT":0},{"OBJECT_NAME":"ICEYE-X73","OBJECT_ID":"2026-067CJ","EPOCH":"2026-07-08T08:32:12.886080","CLASSIFICATION_TYPE":"U","MEAN_MOTION":14.92328172,"ECCENTRICITY":0.000095,"INCLINATION":97.7612,"RA_OF_ASC_NODE":147.3467,"ARG_OF_PERICENTER":159.343,"MEAN_ANOMALY":200.7828,"EPHEMERIS_TYPE":0,"NORAD_CAT_ID":68496,"ELEMENT_SET_NO":999,"REV_AT_EPOCH":1488,"BSTAR":0.00019886,"MEAN_MOTION_DOT":0.00001976,"MEAN_MOTION_DDOT":0},{"OBJECT_NAME":"ICEYE-X75","OBJECT_ID":"2026-067CK","EPOCH":"2026-07-08T08:37:33.063744","CLASSIFICATION_TYPE":"U","MEAN_MOTION":14.92164601,"ECCENTRICITY":0.000084,"INCLINATION":97.7602,"RA_OF_ASC_NODE":147.321,"ARG_OF_PERICENTER":152.6686,"MEAN_ANOMALY":207.4577,"EPHEMERIS_TYPE":0,"NORAD_CAT_ID":68497,"ELEMENT_SET_NO":999,"REV_AT_EPOCH":1488,"BSTAR":0.00010507,"MEAN_MOTION_DOT":0.00001014,"MEAN_MOTION_DDOT":0},{"OBJECT_NAME":"ICEYE-X74","OBJECT_ID":"2026-067CN","EPOCH":"2026-07-08T09:23:59.339328","CLASSIFICATION_TYPE":"U","MEAN_MOTION":14.91773826,"ECCENTRICITY":0.0001479,"INCLINATION":97.7623,"RA_OF_ASC_NODE":147.3117,"ARG_OF_PERICENTER":6.3932,"MEAN_ANOMALY":353.7305,"EPHEMERIS_TYPE":0,"NORAD_CAT_ID":68500,"ELEMENT_SET_NO":999,"REV_AT_EPOCH":1488,"BSTAR":0.00012425,"MEAN_MOTION_DOT":0.00001197,"MEAN_MOTION_DDOT":0},{"OBJECT_NAME":"ICEYE-X76","OBJECT_ID":"2026-067CQ","EPOCH":"2026-07-08T07:41:14.440128","CLASSIFICATION_TYPE":"U","MEAN_MOTION":14.91741816,"ECCENTRICITY":0.0001159,"INCLINATION":97.7635,"RA_OF_ASC_NODE":147.2591,"ARG_OF_PERICENTER":355.0784,"MEAN_ANOMALY":5.0423,"EPHEMERIS_TYPE":0,"NORAD_CAT_ID":68502,"ELEMENT_SET_NO":999,"REV_AT_EPOCH":1487,"BSTAR":0.000074222,"MEAN_MOTION_DOT":0.00000692,"MEAN_MOTION_DDOT":0}]}
